OBJECT_NAME,OBJECT_ID,EPOCH,MEAN_MOTION,ECCENTRICITY,INCLINATION,RA_OF_ASC_NODE,ARG_OF_PERICENTER,MEAN_ANOMALY,EPHEMERIS_TYPE,CLASSIFICATION_TYPE,NORAD_CAT_ID,ELEMENT_SET_NO,REV_AT_EPOCH,BSTAR,MEAN_MOTION_DOT,MEAN_MOTION_DDOT
YAOGAN-35 04A,2022-100A,2026-03-21T03:38:26.333952,15.23049410,.00100775,35.0074,245.3820,207.2944,152.7242,0,U,53522,999,19983,.6423897E-5,.118E-5,0
YAOGAN-35 04B,2022-100C,2026-03-21T02:54:55.264608,15.33504434,.00035826,35.0011,230.9275,200.4112,159.6464,0,U,53524,999,9169,.42526511E-3,.14128E-3,0
YAOGAN-35 04C,2022-100E,2026-03-20T23:39:59.776128,15.20515006,.0010054,34.9951,269.1491,339.9488,20.0830,0,U,53526,999,19952,.3355393E-3,.7493E-4,0
STARLINK-4503,2022-101B,2026-03-20T13:50:24.162720,15.08840903,.0001606,53.2181,25.2478,78.6785,281.4388,0,U,53528,999,19780,.19651E-3,.2841E-4,0
STARLINK-4478,2022-101C,2026-03-21T01:27:32.172192,15.11161295,.0003942,53.2178,22.6823,93.6222,266.5222,0,U,53529,999,19788,.11042128E-2,.1849E-3,0
STARLINK-4482,2022-101D,2026-03-21T02:44:08.113920,15.08850514,.00014469,53.2191,23.0530,95.0707,265.0450,0,U,53530,999,19788,.66826908E-4,.776E-5,0
STARLINK-4487,2022-101E,2026-03-21T03:52:59.578752,15.08840124,.0001342,53.2182,22.6204,88.6997,271.4149,0,U,53531,999,19789,.66570678E-4,.772E-5,0
STARLINK-4483,2022-101F,2026-03-21T01:29:54.398688,15.08843176,.00014502,53.2179,23.0628,95.8671,264.2487,0,U,53532,999,19788,.33766234E-4,.25E-5,0
STARLINK-4493,2022-101G,2026-03-21T03:00:01.194912,15.08819323,.00014447,53.2180,22.7729,81.2152,278.9004,0,U,53533,999,19789,.16163741E-3,.2284E-4,0
STARLINK-4138,2022-101J,2026-03-21T02:54:41.126976,15.08853732,.00013798,53.2182,22.7996,90.6722,269.4428,0,U,53535,999,19789,.14360949E-3,.1999E-4,0
STARLINK-4053,2022-101K,2026-03-21T02:18:54.850752,15.08845241,.00016578,53.2195,12.8348,94.9280,265.1901,0,U,53536,999,19802,-.43339907E-4,-.978E-5,0
STARLINK-4120,2022-101L,2026-03-21T02:56:04.053696,15.08844470,.00015014,53.2190,22.7666,93.8086,266.3078,0,U,53537,999,19789,.64009898E-4,.731E-5,0
STARLINK-4123,2022-101N,2026-03-21T02:49:23.834208,15.08851009,.00015982,53.2193,22.8189,94.6925,265.4250,0,U,53539,999,19789,-.70401E-6,-.299E-5,0
STARLINK-4486,2022-101P,2026-03-21T03:08:03.674112,15.08842916,.0001359,53.2191,13.1157,88.4460,271.6688,0,U,53540,999,19871,.13071793E-3,.1793E-4,0
STARLINK-4485,2022-101Q,2026-03-21T02:38:47.774688,15.08848586,.00013755,53.2187,22.8526,87.9574,272.1576,0,U,53541,999,19858,.78121361E-4,.956E-5,0
STARLINK-4489,2022-101R,2026-03-21T02:08:19.506624,15.08842995,.00016104,53.2190,12.9467,84.4210,275.6966,0,U,53542,999,19871,.5242259E-4,.546E-5,0
STARLINK-4297,2022-101S,2026-03-21T02:29:33.231840,15.08831431,.00021026,53.2183,12.9456,75.3735,284.7490,0,U,53543,999,19871,.40402476E-3,.6146E-4,0
STARLINK-4303,2022-101T,2026-03-21T01:57:42.223680,15.08872811,.00014006,53.2185,12.9806,107.3728,252.7418,0,U,53544,999,19869,.26864045E-3,.3994E-4,0
STARLINK-4475,2022-101U,2026-03-21T02:13:37.770528,15.08843829,.0001479,53.2184,12.9290,100.9851,259.1308,0,U,53545,999,19871,.5436632E-4,.577E-5,0
STARLINK-4477,2022-101V,2026-03-21T00:44:47.228352,15.08842740,.00014678,53.2190,2.7398,89.2895,270.8265,0,U,53546,999,19816,.4595757E-4,.444E-5,0
STARLINK-4474,2022-101W,2026-03-21T02:03:02.184480,15.08840600,.00016783,53.2190,12.9622,76.0000,284.1178,0,U,53547,999,19869,.5735777E-4,.625E-5,0
STARLINK-4513,2022-101X,2026-03-21T01:41:50.498304,15.08831227,.00014263,53.2184,13.0296,96.4358,263.6796,0,U,53548,999,19802,.14746261E-3,.2059E-4,0
STARLINK-4514,2022-101AA,2026-03-21T01:47:07.993248,15.08841571,.00014267,53.2192,13.0137,84.4473,275.6682,0,U,53551,999,19868,.36655713E-4,.296E-5,0
STARLINK-4495,2022-101AB,2026-03-21T01:25:56.493696,15.08840703,.00015487,53.2197,13.0792,88.6153,271.5016,0,U,53552,999,19867,.8841348E-5,-.147E-5,0
STARLINK-4501,2022-101AC,2026-03-21T02:50:43.530432,15.08836045,.00015532,53.2191,12.6885,83.6030,276.5139,0,U,53553,999,19869,.15764843E-3,.2222E-4,0
STARLINK-4506,2022-101AD,2026-03-21T02:52:06.658464,15.08838906,.00013489,53.2191,12.8168,81.1988,278.9157,0,U,53554,999,19803,.50430701E-4,.515E-5,0
STARLINK-4504,2022-101AE,2026-03-21T03:06:37.339776,15.08844736,.00013963,53.2192,12.7652,87.4368,272.6784,0,U,53555,999,19869,.4305786E-4,.397E-5,0
STARLINK-4505,2022-101AF,2026-03-20T12:21:39.213216,15.08838969,.00012111,53.2184,15.5216,87.1783,272.9348,0,U,53556,999,19794,.14815553E-4,-.52E-6,0
STARLINK-4502,2022-101AG,2026-03-21T02:56:01.684608,15.08841879,.00014368,53.2194,12.7985,86.3742,273.7415,0,U,53557,999,19868,.2042278E-4,.37E-6,0
STARLINK-4494,2022-101AH,2026-03-21T02:43:23.898720,15.08834178,.00016087,53.2197,7.5577,80.3943,279.7230,0,U,53558,999,19876,-.40026576E-4,-.925E-5,0
STARLINK-4508,2022-101AJ,2026-03-21T04:20:49.613856,15.08843213,.00016463,53.2190,12.5312,78.0766,282.0410,0,U,53559,999,19804,.67231251E-4,.782E-5,0
STARLINK-4564,2022-101AK,2026-03-21T00:34:18.372000,15.08839147,.00014236,53.2197,3.4271,94.2394,265.8761,0,U,53560,999,19815,.73200795E-4,.877E-5,0
STARLINK-4563,2022-101AL,2026-03-20T12:16:21.116064,15.08847567,.00013787,53.2195,15.5377,86.8557,273.2593,0,U,53561,999,19794,.15327621E-3,.2153E-4,0
STARLINK-4565,2022-101AM,2026-03-21T02:04:22.730016,15.08841954,.00013387,53.2186,3.1005,87.7615,272.3530,0,U,53562,999,19882,.84584655E-4,.1059E-4,0
STARLINK-4561,2022-101AN,2026-03-21T02:15:00.246240,15.08829723,.00014736,53.2194,3.1494,74.8878,285.2277,0,U,53563,999,19816,-.49468742E-4,-.1075E-4,0
STARLINK-4577,2022-101AP,2026-03-21T01:53:44.229696,15.08876065,.0001849,53.2192,3.0563,75.6584,284.4613,0,U,53564,999,19816,.22121726E-3,.3238E-4,0
STARLINK-4575,2022-101AQ,2026-03-21T02:05:45.397536,15.08842450,.00012196,53.2177,3.1073,82.3434,277.7697,0,U,53565,999,19882,.10302363E-4,-.124E-5,0
STARLINK-4576,2022-101AR,2026-03-21T01:43:09.292512,15.08840633,.00012895,53.2188,3.0125,86.3987,273.7152,0,U,53566,999,19885,.32734315E-4,.233E-5,0
STARLINK-4585,2022-101AS,2026-03-21T01:59:04.174080,15.08843859,.00014066,53.2189,3.0799,86.3092,273.8061,0,U,53567,999,19816,.11975794E-4,-.97E-6,0
STARLINK-4583,2022-101AT,2026-03-20T23:51:51.673248,15.08832690,.0001525,53.2195,3.2473,73.0228,287.0931,0,U,53568,999,19884,-.1765996E-3,-.3097E-4,0
STARLINK-4582,2022-101AU,2026-03-21T01:48:26.335584,15.08864101,.00016785,53.2187,3.0355,82.4997,277.6186,0,U,53569,999,19883,.3063125E-3,.4593E-4,0
STARLINK-4550,2022-101AV,2026-03-21T01:32:32.298144,15.08843485,.00016575,53.2182,2.9672,91.1256,268.9927,0,U,53570,999,19885,.37867451E-4,.315E-5,0
STARLINK-4584,2022-101AW,2026-03-21T01:37:49.716192,15.08860140,.00014873,53.2185,2.9891,104.4388,255.6769,0,U,53571,999,19885,.15867654E-3,.224E-4,0
STARLINK-4555,2022-101AX,2026-03-20T18:39:10.562976,15.08834692,.00012478,53.2191,4.0221,80.5398,279.5736,0,U,53572,999,19812,.13128961E-3,.1802E-4,0
STARLINK-4559,2022-101AZ,2026-03-21T01:06:00.761760,15.08843153,.00011684,53.2184,2.8536,92.0320,268.0806,0,U,53574,999,19816,.87797909E-4,.111E-4,0
STARLINK-4551,2022-101BA,2026-03-21T01:16:37.624800,15.08858318,.0001129,53.2192,2.8995,95.0285,265.0836,0,U,53575,999,19885,.16196959E-3,.2292E-4,0
STARLINK-4581,2022-101BB,2026-03-21T01:18:00.212832,15.08845520,.00014532,53.2195,2.9040,86.6048,273.5110,0,U,53576,999,19898,.3380106E-5,-.234E-5,0
STARLINK-4553,2022-101BC,2026-03-21T01:11:19.423104,15.08839908,.00013401,53.2188,2.8732,93.7795,266.3351,0,U,53577,999,19898,.1155274E-5,-.27E-5,0
STARLINK-4556,2022-101BD,2026-03-20T12:12:19.474272,15.08838449,.00013696,53.2191,5.1888,88.5690,271.5459,0,U,53578,999,19808,.17917701E-4,-.3E-7,0
STARLINK-4580,2022-101BE,2026-03-21T02:25:29.182080,15.08842364,.00014668,53.2193,2.4855,97.6029,262.5129,0,U,53579,999,19817,.1359491E-3,.1876E-4,0
CHUANGXIN 16A (CX-16A),2022-102A,2026-03-20T16:54:37.580832,15.05602663,.0004981,28.9945,185.0089,154.6171,205.4674,0,U,53586,999,19617,.13789E-3,.2195E-4,0
BEIJING-3B,2022-103A,2026-03-21T06:32:04.496064,14.86970046,.00244453,97.8049,159.2115,346.6418,13.4148,0,U,53587,999,19402,.1315456E-3,.1128E-4,0
STARLINK-4691,2022-104A,2026-03-20T16:49:18.827040,15.08841646,.00012154,53.2163,194.9385,89.2458,270.8674,0,U,53588,999,19775,.63228878E-4,.719E-5,0
STARLINK-4673,2022-104B,2026-03-20T14:47:24.222912,15.08844512,.0000884,53.2172,195.1175,69.9160,290.1928,0,U,53589,999,19759,-.3809E-5,-.348E-5,0
STARLINK-4689,2022-104C,2026-03-20T16:44:00.576096,15.08845672,.0001172,53.2170,194.9164,88.9214,271.1912,0,U,53590,999,19762,.3566604E-4,.28E-5,0
STARLINK-4674,2022-104D,2026-03-21T00:35:37.325184,15.08841266,.00009988,53.2149,193.4044,87.3406,272.7701,0,U,53591,999,19767,.54326486E-4,.577E-5,0
STARLINK-4672,2022-104E,2026-03-21T00:31:42.262752,15.08839666,.00012227,53.2173,193.3889,85.6139,274.4993,0,U,53592,999,19765,.62896804E-4,.713E-5,0
STARLINK-4681,2022-104G,2026-03-21T06:00:02.999808,15.18789266,.000115,53.2181,191.8777,54.9339,355.4732,0,U,53594,999,584,.61768758E-2,.132124E-2,0
STARLINK-4684,2022-104H,2026-03-20T17:52:51.497472,15.08838207,.0001421,53.2154,194.5023,93.0794,267.0361,0,U,53595,999,19761,.56339E-4,.609E-5,0
STARLINK-4676,2022-104L,2026-03-20T22:00:01.999584,15.08859873,.00011978,53.2155,193.4612,77.7298,275.4269,0,U,53598,999,578,-.14294274E-2,-.22977E-3,0
STARLINK-4677,2022-104N,2026-03-21T01:08:49.939008,15.08842146,.00013261,53.2151,193.5356,93.8118,266.3026,0,U,53600,999,19732,.45146271E-4,.431E-5,0
STARLINK-4675,2022-104P,2026-03-20T17:31:38.301024,15.08839917,.00012356,53.2164,194.4129,93.4634,266.6500,0,U,53601,999,19728,-.29209789E-4,-.753E-5,0
STARLINK-4648,2022-104Q,2026-03-21T00:01:48.235008,15.08839526,.00011931,53.2171,188.2796,90.2031,269.9098,0,U,53602,999,19739,.55713982E-4,.599E-5,0
STARLINK-4692,2022-104R,2026-03-21T00:33:38.115648,15.08840598,.00013255,53.2153,188.4155,90.9584,269.1560,0,U,53603,999,19739,.30949412E-4,.205E-5,0
STARLINK-4690,2022-104S,2026-03-20T23:51:11.726208,15.08837199,.00013931,53.2187,188.2327,85.5241,274.5910,0,U,53604,999,19739,.4199291E-4,.38E-5,0
